{"type": "FeatureCollection", "features": [ {"type": "Feature", "properties": {"norad_id": 34738, "name": "COSMOS 2251 DEB", "group": "cosmos-2251-debris", "lat": -37.758557667048784, "lon": 110.36092103239916, "alt_km": 723.2789414950457, "timestamp": "2025-12-23T11:34:48.555556+00:00", "meta": {"OBJECT_NAME": "COSMOS 2251 DEB", "OBJECT_ID": "1993-036ZG", "EPOCH": "2025-12-22T19:45:23.433696", "MEAN_MOTION": 14.46324125, "ECCENTRICITY": 0.00475679, "INCLINATION": 74.0154, "RA_OF_ASC_NODE": 124.4199, "ARG_OF_PERICENTER": 268.8475, "MEAN_ANOMALY": 219.717, "EPHEMERIS_TYPE": 0, "CLASSIFICATION_TYPE": "U", "NORAD_CAT_ID": 34738, "ELEMENT_SET_NO": 999, "REV_AT_EPOCH": 88004, "BSTAR": 0.00028202922, "MEAN_MOTION_DOT": 9.97e-06, "MEAN_MOTION_DDOT": 0}, "tle": {"line1": "1 34738U 93036ZG  25356.82318789  .00000997  00000+0  28203-3 0  9995", "line2": "2 34738  74.0154 124.4199 0047567 268.8475 219.7170 14.46324125880046"}}, "geometry": {"type": "Point", "coordinates": [110.36092103239916, -37.758557667048784]}}, {"type": "Feature", "properties": {"norad_id": 34750, "name": "COSMOS 2251 DEB", "group": "cosmos-2251-debris", "lat": -19.986787530603703, "lon": 175.3502871412882, "alt_km": 717.2584505898931, "timestamp": "2025-12-23T11:34:48.555565+00:00", "meta": {"OBJECT_NAME": "COSMOS 2251 DEB", "OBJECT_ID": "1993-036ZU", "EPOCH": "2025-12-22T12:48:37.447200", "MEAN_MOTION": 14.61412176, "ECCENTRICITY": 0.0038418, "INCLINATION": 74.1065, "RA_OF_ASC_NODE": 183.1044, "ARG_OF_PERICENTER": 132.8514, "MEAN_ANOMALY": 257.3018, "EPHEMERIS_TYPE": 0, "CLASSIFICATION_TYPE": "U", "NORAD_CAT_ID": 34750, "ELEMENT_SET_NO": 999, "REV_AT_EPOCH": 88374, "BSTAR": 0.00113959, "MEAN_MOTION_DOT": 5.675e-05, "MEAN_MOTION_DDOT": 0}, "tle": {"line1": "1 34750U 93036ZU  25356.53376675  .00005675  00000+0  11396-2 0  9997", "line2": "2 34750  74.1065 183.1044 0038418 132.8514 257.3018 14.61412176883742"}}, "geometry": {"type": "Point", "coordinates": [175.3502871412882, -19.986787530603703]}}, {"type": "Feature", "properties": {"norad_id": 34752, "name": "COSMOS 2251 DEB", "group": "cosmos-2251-debris", "lat": 4.377421673238718, "lon": 157.479315284941, "alt_km": 557.9472985471284, "timestamp": "2025-12-23T11:34:48.555573+00:00", "meta": {"OBJECT_NAME": "COSMOS 2251 DEB", "OBJECT_ID": "1993-036ZW", "EPOCH": "2025-12-23T01:12:09.902304", "MEAN_MOTION": 15.00151807, "ECCENTRICITY": 0.0047465, "INCLINATION": 74.0138, "RA_OF_ASC_NODE": 339.6166, "ARG_OF_PERICENTER": 104.7129, "MEAN_ANOMALY": 255.9325, "EPHEMERIS_TYPE": 0, "CLASSIFICATION_TYPE": "U", "NORAD_CAT_ID": 34752, "ELEMENT_SET_NO": 999, "REV_AT_EPOCH": 90004, "BSTAR": 0.0010897, "MEAN_MOTION_DOT": 0.00013923, "MEAN_MOTION_DDOT": 0}, "tle": {"line1": "1 34752U 93036ZW  25357.05011461  .00013923  00000+0  10897-2 0  9996", "line2": "2 34752  74.0138 339.6166 0047465 104.7129 255.9325 15.00151807900042"}}, "geometry": {"type": "Point", "coordinates": [157.479315284941, 4.377421673238718]}}, {"type": "Feature", "properties": {"norad_id": 34754, "name": "COSMOS 2251 DEB", "group": "cosmos-2251-debris", "lat": 7.343975523654519, "lon": -150.15327274550268, "alt_km": 743.6029009889562, "timestamp": "2025-12-23T11:34:48.555583+00:00", "meta": {"OBJECT_NAME": "COSMOS 2251 DEB", "OBJECT_ID": "1993-036ZY", "EPOCH": "2025-12-22T14:01:00.618816", "MEAN_MOTION": 14.40494534, "ECCENTRICITY": 0.00299317, "INCLINATION": 74.0293, "RA_OF_ASC_NODE": 209.393, "ARG_OF_PERICENTER": 323.6263, "MEAN_ANOMALY": 66.4846, "EPHEMERIS_TYPE": 0, "CLASSIFICATION_TYPE": "U", "NORAD_CAT_ID": 34754, "ELEMENT_SET_NO": 999, "REV_AT_EPOCH": 88275, "BSTAR": 0.00017314509, "MEAN_MOTION_DOT": 5.27e-06, "MEAN_MOTION_DDOT": 0}, "tle": {"line1": "1 34754U 93036ZY  25356.58403494  .00000527  00000+0  17315-3 0  9995", "line2": "2 34754  74.0293 209.3930 0029931 323.6263  66.4846 14.40494534882757"}}, "geometry": {"type": "Point", "coordinates": [-150.15327274550268, 7.343975523654519]}}, {"type": "Feature", "properties": {"norad_id": 34755, "name": "COSMOS 2251 DEB", "group": "cosmos-2251-debris", "lat": -54.47094851609986, "lon": 116.57445648704774, "alt_km": 885.471591393045, "timestamp": "2025-12-23T11:34:48.555592+00:00", "meta": {"OBJECT_NAME": "COSMOS 2251 DEB", "OBJECT_ID": "1993-036ZZ", "EPOCH": "2025-12-20T18:30:29.240064", "MEAN_MOTION": 13.50572591, "ECCENTRICITY": 0.04081275, "INCLINATION": 73.9255, "RA_OF_ASC_NODE": 277.1155, "ARG_OF_PERICENTER": 295.5233, "MEAN_ANOMALY": 88.1239, "EPHEMERIS_TYPE": 0, "CLASSIFICATION_TYPE": "U", "NORAD_CAT_ID": 34755, "ELEMENT_SET_NO": 999, "REV_AT_EPOCH": 82632, "BSTAR": 0.00057435404, "MEAN_MOTION_DOT": 5.95e-06, "MEAN_MOTION_DDOT": 0}, "tle": {"line1": "1 34755U 93036ZZ  25354.77117176  .00000595  00000+0  57435-3 0  9996", "line2": "2 34755  73.9255 277.1155 0408127 295.5233  88.1239 13.50572591826326"}}, "geometry": {"type": "Point", "coordinates": [116.57445648704774, -54.47094851609986]}}, {"type": "Feature", "properties": {"norad_id": 34756, "name": "COSMOS 2251 DEB", "group": "cosmos-2251-debris", "lat": 68.7244305523529, "lon": 134.1534034127235, "alt_km": 1105.4835630526777, "timestamp": "2025-12-23T11:34:48.555601+00:00", "meta": {"OBJECT_NAME": "COSMOS 2251 DEB", "OBJECT_ID": "1993-036AAA", "EPOCH": "2025-12-22T12:23:20.340096", "MEAN_MOTION": 13.6726693, "ECCENTRICITY": 0.03457457, "INCLINATION": 74.0031, "RA_OF_ASC_NODE": 88.2919, "ARG_OF_PERICENTER": 322.0021, "MEAN_ANOMALY": 35.7148, "EPHEMERIS_TYPE": 0, "CLASSIFICATION_TYPE": "U", "NORAD_CAT_ID": 34756, "ELEMENT_SET_NO": 999, "REV_AT_EPOCH": 83555, "BSTAR": 0.0010168028, "MEAN_MOTION_DOT": 1.267e-05, "MEAN_MOTION_DDOT": 0}, "tle": {"line1": "1 34756U 93036AAA 25356.51620764  .00001267  00000+0  10168-2 0  9991", "line2": "2 34756  74.0031  88.2919 0345745 322.0021  35.7148 13.67266930835554"}}, "geometry": {"type": "Point", "coordinates": [134.1534034127235, 68.7244305523529]}}, {"type": "Feature", "properties": {"norad_id": 34758, "name": "COSMOS 2251 DEB", "group": "cosmos-2251-debris", "lat": -12.250716350413098, "lon": 105.75420225312216, "alt_km": 1287.3386642596888, "timestamp": "2025-12-23T11:34:48.555610+00:00", "meta": {"OBJECT_NAME": "COSMOS 2251 DEB", "OBJECT_ID": "1993-036AAC", "EPOCH": "2025-12-23T01:49:17.475744", "MEAN_MOTION": 13.58107356, "ECCENTRICITY": 0.0382207, "INCLINATION": 74.107, "RA_OF_ASC_NODE": 282.8618, "ARG_OF_PERICENTER": 44.1617, "MEAN_ANOMALY": 318.934, "EPHEMERIS_TYPE": 0, "CLASSIFICATION_TYPE": "U", "NORAD_CAT_ID": 34758, "ELEMENT_SET_NO": 999, "REV_AT_EPOCH": 83050, "BSTAR": 0.0017021, "MEAN_MOTION_DOT": 1.966e-05, "MEAN_MOTION_DDOT": 0}, "tle": {"line1": "1 34758U 93036AAC 25357.07589671  .00001966  00000+0  17021-2 0  9997", "line2": "2 34758  74.1070 282.8618 0382207  44.1617 318.9340 13.58107356830501"}}, "geometry": {"type": "Point", "coordinates": [105.75420225312216, -12.250716350413098]}}, {"type": "Feature", "properties": {"norad_id": 34760, "name": "COSMOS 2251 DEB", "group": "cosmos-2251-debris", "lat": -59.695160534077175, "lon": -106.07928346875835, "alt_km": 777.1449223698619, "timestamp": "2025-12-23T11:34:48.555619+00:00", "meta": {"OBJECT_NAME": "COSMOS 2251 DEB", "OBJECT_ID": "1993-036AAE", "EPOCH": "2025-12-23T03:43:05.079360", "MEAN_MOTION": 14.19595173, "ECCENTRICITY": 0.009722, "INCLINATION": 74.0632, "RA_OF_ASC_NODE": 283.7721, "ARG_OF_PERICENTER": 333.614, "MEAN_ANOMALY": 89.7391, "EPHEMERIS_TYPE": 0, "CLASSIFICATION_TYPE": "U", "NORAD_CAT_ID": 34760, "ELEMENT_SET_NO": 999, "REV_AT_EPOCH": 86836, "BSTAR": 0.0005327, "MEAN_MOTION_DOT": 1.153e-05, "MEAN_MOTION_DDOT": 0}, "tle": {"line1": "1 34760U 93036AAE 25357.15491990  .00001153  00000+0  53270-3 0  9990", "line2": "2 34760  74.0632 283.7721 0097220 333.6140  89.7391 14.19595173868367"}}, "geometry": {"type": "Point", "coordinates": [-106.07928346875835, -59.695160534077175]}}, {"type": "Feature", "properties": {"norad_id": 34761, "name": "COSMOS 2251 DEB", "group": "cosmos-2251-debris", "lat": -29.71574982705445, "lon": 172.40179025106232, "alt_km": 795.6367230060059, "timestamp": "2025-12-23T11:34:48.555628+00:00", "meta": {"OBJECT_NAME": "COSMOS 2251 DEB", "OBJECT_ID": "1993-036AAF", "EPOCH": "2025-12-22T06:13:11.730720", "MEAN_MOTION": 14.38082113, "ECCENTRICITY": 0.00369228, "INCLINATION": 74.0285, "RA_OF_ASC_NODE": 345.2476, "ARG_OF_PERICENTER": 16.6856, "MEAN_ANOMALY": 343.5503, "EPHEMERIS_TYPE": 0, "CLASSIFICATION_TYPE": "U", "NORAD_CAT_ID": 34761, "ELEMENT_SET_NO": 999, "REV_AT_EPOCH": 87786, "BSTAR": 0.00058755109, "MEAN_MOTION_DOT": 1.768e-05, "MEAN_MOTION_DDOT": 0}, "tle": {"line1": "1 34761U 93036AAF 25356.25916355  .00001768  00000+0  58755-3 0  9993", "line2": "2 34761  74.0285 345.2476 0036922  16.6856 343.5503 14.38082113877864"}}, "geometry": {"type": "Point", "coordinates": [172.40179025106232, -29.71574982705445]}}, {"type": "Feature", "properties": {"norad_id": 34784, "name": "COSMOS 2251 DEB", "group": "cosmos-2251-debris", "lat": -57.22038344383194, "lon": 150.23904816615305, "alt_km": 719.9559706183281, "timestamp": "2025-12-23T11:34:48.555637+00:00", "meta": {"OBJECT_NAME": "COSMOS 2251 DEB", "OBJECT_ID": "1993-036AAM", "EPOCH": "2025-12-22T03:15:24.680448", "MEAN_MOTION": 14.60818726, "ECCENTRICITY": 0.00491808, "INCLINATION": 74.0079, "RA_OF_ASC_NODE": 306.3699, "ARG_OF_PERICENTER": 112.8499, "MEAN_ANOMALY": 247.7872, "EPHEMERIS_TYPE": 0, "CLASSIFICATION_TYPE": "U", "NORAD_CAT_ID": 34784, "ELEMENT_SET_NO": 999, "REV_AT_EPOCH": 88672, "BSTAR": 0.00046694369, "MEAN_MOTION_DOT": 2.29e-05, "MEAN_MOTION_DDOT": 0}, "tle": {"line1": "1 34784U 93036AAM 25356.13570232  .00002290  00000+0  46694-3 0  9995", "line2": "2 34784  74.0079 306.3699 0049180 112.8499 247.7872 14.60818726886728"}}, "geometry": {"type": "Point", "coordinates": [150.23904816615305, -57.22038344383194]}}]}